{"type": "FeatureCollection", "features": [ {"type": "Feature", "properties": {"norad_id": 34077, "name": "IRIDIUM 33 DEB", "group": "iridium-33-debris", "lat": -49.139798890827564, "lon": -126.13625073850088, "alt_km": 690.8102459409974, "timestamp": "2025-12-16T21:38:57.559810+00:00", "meta": {"OBJECT_NAME": "IRIDIUM 33 DEB", "OBJECT_ID": "1997-051CL", "EPOCH": "2025-12-16T04:27:24.340896", "MEAN_MOTION": 14.64876846, "ECCENTRICITY": 0.00098188, "INCLINATION": 86.3861, "RA_OF_ASC_NODE": 49.9893, "ARG_OF_PERICENTER": 28.7956, "MEAN_ANOMALY": 25.1359, "EPHEMERIS_TYPE": 0, "CLASSIFICATION_TYPE": "U", "NORAD_CAT_ID": 34077, "ELEMENT_SET_NO": 999, "REV_AT_EPOCH": 88383, "BSTAR": 0.00069534006, "MEAN_MOTION_DOT": 3.738e-05, "MEAN_MOTION_DDOT": 0}, "tle": {"line1": "1 34077U 97051CL  25350.18569839  .00003738  00000+0  69534-3 0  9997", "line2": "2 34077  86.3861  49.9893 0009818  28.7956  25.1359 14.64876846883839"}}, "geometry": {"type": "Point", "coordinates": [-126.13625073850088, -49.139798890827564]}}, {"type": "Feature", "properties": {"norad_id": 34079, "name": "IRIDIUM 33 DEB", "group": "iridium-33-debris", "lat": 38.64670157931978, "lon": -176.13380599157287, "alt_km": 618.1658252770831, "timestamp": "2025-12-16T21:38:57.559821+00:00", "meta": {"OBJECT_NAME": "IRIDIUM 33 DEB", "OBJECT_ID": "1997-051CN", "EPOCH": "2025-12-16T03:23:56.181408", "MEAN_MOTION": 14.83619432, "ECCENTRICITY": 0.00052215, "INCLINATION": 86.3777, "RA_OF_ASC_NODE": 7.1155, "ARG_OF_PERICENTER": 356.7637, "MEAN_ANOMALY": 45.5465, "EPHEMERIS_TYPE": 0, "CLASSIFICATION_TYPE": "U", "NORAD_CAT_ID": 34079, "ELEMENT_SET_NO": 999, "REV_AT_EPOCH": 89028, "BSTAR": 0.0012282375, "MEAN_MOTION_DOT": 0.0001016, "MEAN_MOTION_DDOT": 0}, "tle": {"line1": "1 34079U 97051CN  25350.14162247  .00010160  00000+0  12282-2 0  9991", "line2": "2 34079  86.3777   7.1155 0005221 356.7637  45.5465 14.83619432890286"}}, "geometry": {"type": "Point", "coordinates": [-176.13380599157287, 38.64670157931978]}}, {"type": "Feature", "properties": {"norad_id": 34088, "name": "IRIDIUM 33 DEB", "group": "iridium-33-debris", "lat": -9.369102579698128, "lon": 28.213900034063407, "alt_km": 601.5336142362366, "timestamp": "2025-12-16T21:38:57.559831+00:00", "meta": {"OBJECT_NAME": "IRIDIUM 33 DEB", "OBJECT_ID": "1997-051CX", "EPOCH": "2025-12-16T08:52:22.816992", "MEAN_MOTION": 14.91555792, "ECCENTRICITY": 0.00061391, "INCLINATION": 86.3848, "RA_OF_ASC_NODE": 29.0562, "ARG_OF_PERICENTER": 164.5141, "MEAN_ANOMALY": 209.6288, "EPHEMERIS_TYPE": 0, "CLASSIFICATION_TYPE": "U", "NORAD_CAT_ID": 34088, "ELEMENT_SET_NO": 999, "REV_AT_EPOCH": 88796, "BSTAR": 0.0016532339, "MEAN_MOTION_DOT": 0.00016619, "MEAN_MOTION_DDOT": 0}, "tle": {"line1": "1 34088U 97051CX  25350.36970853  .00016619  00000+0  16532-2 0  9992", "line2": "2 34088  86.3848  29.0562 0006139 164.5141 209.6288 14.91555792887968"}}, "geometry": {"type": "Point", "coordinates": [28.213900034063407, -9.369102579698128]}}, {"type": "Feature", "properties": {"norad_id": 34091, "name": "IRIDIUM 33 DEB", "group": "iridium-33-debris", "lat": 34.4128666106291, "lon": 67.43903715525113, "alt_km": 630.8321233624347, "timestamp": "2025-12-16T21:38:57.559842+00:00", "meta": {"OBJECT_NAME": "IRIDIUM 33 DEB", "OBJECT_ID": "1997-051DA", "EPOCH": "2025-12-16T05:17:24.983520", "MEAN_MOTION": 14.82095169, "ECCENTRICITY": 0.00334803, "INCLINATION": 86.3422, "RA_OF_ASC_NODE": 65.2396, "ARG_OF_PERICENTER": 280.6095, "MEAN_ANOMALY": 79.1357, "EPHEMERIS_TYPE": 0, "CLASSIFICATION_TYPE": "U", "NORAD_CAT_ID": 34091, "ELEMENT_SET_NO": 999, "REV_AT_EPOCH": 87918, "BSTAR": 0.0036064506, "MEAN_MOTION_DOT": 0.00029061, "MEAN_MOTION_DDOT": 0}, "tle": {"line1": "1 34091U 97051DA  25350.22042805  .00029061  00000+0  36065-2 0  9996", "line2": "2 34091  86.3422  65.2396 0033480 280.6095  79.1357 14.82095169879183"}}, "geometry": {"type": "Point", "coordinates": [67.43903715525113, 34.4128666106291]}}, {"type": "Feature", "properties": {"norad_id": 34097, "name": "IRIDIUM 33 DEB", "group": "iridium-33-debris", "lat": -64.31503782627227, "lon": -8.370004545515918, "alt_km": 747.3913150185308, "timestamp": "2025-12-16T21:38:57.559852+00:00", "meta": {"OBJECT_NAME": "IRIDIUM 33 DEB", "OBJECT_ID": "1997-051DG", "EPOCH": "2025-12-16T01:51:38.376000", "MEAN_MOTION": 14.34805305, "ECCENTRICITY": 0.00822356, "INCLINATION": 86.2008, "RA_OF_ASC_NODE": 359.9353, "ARG_OF_PERICENTER": 351.3044, "MEAN_ANOMALY": 8.6721, "EPHEMERIS_TYPE": 0, "CLASSIFICATION_TYPE": "U", "NORAD_CAT_ID": 34097, "ELEMENT_SET_NO": 999, "REV_AT_EPOCH": 87167, "BSTAR": 0.0010750734, "MEAN_MOTION_DOT": 3.186e-05, "MEAN_MOTION_DDOT": 0}, "tle": {"line1": "1 34097U 97051DG  25350.07752750  .00003186  00000+0  10751-2 0  9996", "line2": "2 34097  86.2008 359.9353 0082235 351.3044   8.6721 14.34805305871672"}}, "geometry": {"type": "Point", "coordinates": [-8.370004545515918, -64.31503782627227]}}, {"type": "Feature", "properties": {"norad_id": 34145, "name": "IRIDIUM 33 DEB", "group": "iridium-33-debris", "lat": -42.652991924535975, "lon": -32.82644402889518, "alt_km": 779.186549263688, "timestamp": "2025-12-16T21:38:57.559863+00:00", "meta": {"OBJECT_NAME": "IRIDIUM 33 DEB", "OBJECT_ID": "1997-051DY", "EPOCH": "2025-12-16T05:11:50.015904", "MEAN_MOTION": 14.42314642, "ECCENTRICITY": 0.00557711, "INCLINATION": 86.2114, "RA_OF_ASC_NODE": 330.9786, "ARG_OF_PERICENTER": 82.793, "MEAN_ANOMALY": 277.9606, "EPHEMERIS_TYPE": 0, "CLASSIFICATION_TYPE": "U", "NORAD_CAT_ID": 34145, "ELEMENT_SET_NO": 999, "REV_AT_EPOCH": 87688, "BSTAR": 0.00083631618, "MEAN_MOTION_DOT": 2.832e-05, "MEAN_MOTION_DDOT": 0}, "tle": {"line1": "1 34145U 97051DY  25350.21655111  .00002832  00000+0  83632-3 0  9995", "line2": "2 34145  86.2114 330.9786 0055771  82.7930 277.9606 14.42314642876886"}}, "geometry": {"type": "Point", "coordinates": [-32.82644402889518, -42.652991924535975]}}, {"type": "Feature", "properties": {"norad_id": 34146, "name": "IRIDIUM 33 DEB", "group": "iridium-33-debris", "lat": 56.260293292905374, "lon": -6.453005893125208, "alt_km": 739.3551452803204, "timestamp": "2025-12-16T21:38:57.559873+00:00", "meta": {"OBJECT_NAME": "IRIDIUM 33 DEB", "OBJECT_ID": "1997-051DZ", "EPOCH": "2025-12-16T00:05:26.706048", "MEAN_MOTION": 14.49072903, "ECCENTRICITY": 0.00258086, "INCLINATION": 86.2834, "RA_OF_ASC_NODE": 348.3589, "ARG_OF_PERICENTER": 210.1704, "MEAN_ANOMALY": 203.4774, "EPHEMERIS_TYPE": 0, "CLASSIFICATION_TYPE": "U", "NORAD_CAT_ID": 34146, "ELEMENT_SET_NO": 999, "REV_AT_EPOCH": 88154, "BSTAR": 0.00067263387, "MEAN_MOTION_DOT": 2.584e-05, "MEAN_MOTION_DDOT": 0}, "tle": {"line1": "1 34146U 97051DZ  25350.00378132  .00002584  00000+0  67263-3 0  9994", "line2": "2 34146  86.2834 348.3589 0025808 210.1704 203.4774 14.49072903881541"}}, "geometry": {"type": "Point", "coordinates": [-6.453005893125208, 56.260293292905374]}}, {"type": "Feature", "properties": {"norad_id": 34159, "name": "IRIDIUM 33 DEB", "group": "iridium-33-debris", "lat": -26.400307608698434, "lon": 44.65127547711527, "alt_km": 760.0368150156737, "timestamp": "2025-12-16T21:38:57.559884+00:00", "meta": {"OBJECT_NAME": "IRIDIUM 33 DEB", "OBJECT_ID": "1997-051EN", "EPOCH": "2025-12-16T03:24:28.180512", "MEAN_MOTION": 14.38502653, "ECCENTRICITY": 0.00259522, "INCLINATION": 86.3506, "RA_OF_ASC_NODE": 46.7908, "ARG_OF_PERICENTER": 275.7121, "MEAN_ANOMALY": 84.1118, "EPHEMERIS_TYPE": 0, "CLASSIFICATION_TYPE": "U", "NORAD_CAT_ID": 34159, "ELEMENT_SET_NO": 999, "REV_AT_EPOCH": 88008, "BSTAR": 0.00037309184, "MEAN_MOTION_DOT": 1.163e-05, "MEAN_MOTION_DDOT": 0}, "tle": {"line1": "1 34159U 97051EN  25350.14199283  .00001163  00000+0  37309-3 0  9991", "line2": "2 34159  86.3506  46.7908 0025952 275.7121  84.1118 14.38502653880088"}}, "geometry": {"type": "Point", "coordinates": [44.65127547711527, -26.400307608698434]}}, {"type": "Feature", "properties": {"norad_id": 34350, "name": "IRIDIUM 33 DEB", "group": "iridium-33-debris", "lat": 74.32100796198401, "lon": 167.7734691555216, "alt_km": 717.9817225596198, "timestamp": "2025-12-16T21:38:57.559895+00:00", "meta": {"OBJECT_NAME": "IRIDIUM 33 DEB", "OBJECT_ID": "1997-051ES", "EPOCH": "2025-12-16T01:28:29.318880", "MEAN_MOTION": 14.45394432, "ECCENTRICITY": 0.00231047, "INCLINATION": 86.3274, "RA_OF_ASC_NODE": 1.3659, "ARG_OF_PERICENTER": 124.9208, "MEAN_ANOMALY": 289.1497, "EPHEMERIS_TYPE": 0, "CLASSIFICATION_TYPE": "U", "NORAD_CAT_ID": 34350, "ELEMENT_SET_NO": 999, "REV_AT_EPOCH": 88341, "BSTAR": 0.00029886343, "MEAN_MOTION_DOT": 1.074e-05, "MEAN_MOTION_DDOT": 0}, "tle": {"line1": "1 34350U 97051ES  25350.06145045  .00001074  00000+0  29886-3 0  9994", "line2": "2 34350  86.3274   1.3659 0023104 124.9208 289.1497 14.45394432883410"}}, "geometry": {"type": "Point", "coordinates": [167.7734691555216, 74.32100796198401]}}, {"type": "Feature", "properties": {"norad_id": 34366, "name": "IRIDIUM 33 DEB", "group": "iridium-33-debris", "lat": -23.538399524989853, "lon": -130.91187759760632, "alt_km": 714.2437422949724, "timestamp": "2025-12-16T21:38:57.559905+00:00", "meta": {"OBJECT_NAME": "IRIDIUM 33 DEB", "OBJECT_ID": "1997-051FJ", "EPOCH": "2025-12-16T04:27:03.913344", "MEAN_MOTION": 14.5408801, "ECCENTRICITY": 0.00226911, "INCLINATION": 86.3701, "RA_OF_ASC_NODE": 47.8151, "ARG_OF_PERICENTER": 128.8458, "MEAN_ANOMALY": 285.6209, "EPHEMERIS_TYPE": 0, "CLASSIFICATION_TYPE": "U", "NORAD_CAT_ID": 34366, "ELEMENT_SET_NO": 999, "REV_AT_EPOCH": 88232, "BSTAR": 0.00066965836, "MEAN_MOTION_DOT": 2.857e-05, "MEAN_MOTION_DDOT": 0}, "tle": {"line1": "1 34366U 97051FJ  25350.18546196  .00002857  00000+0  66966-3 0  9996", "line2": "2 34366  86.3701  47.8151 0022691 128.8458 285.6209 14.54088010882327"}}, "geometry": {"type": "Point", "coordinates": [-130.91187759760632, -23.538399524989853]}}]}